0 PEGASUS R/B
1 27371U 02004B   13281.48295378  .00002288  00000-0  18106-3 0   964
2 27371 038.0309 066.5382 0012719 142.8296 217.3347 15.01576050639013
0 PEGASUS R/B
1 27371U 02004B   13282.81296075  .00002827  00000-0  22173-3 0   976
2 27371 038.0306 058.7587 0012610 153.4624 206.6785 15.01587794639219
0 PEGASUS R/B
1 27371U 02004B   13286.73643480  .00002993  00000-0  23408-3 0   995
2 27371 038.0313 035.8136 0013202 183.6596 176.4069 15.01609005639808
0 PEGASUS R/B
1 27371U 02004B   13288.46540366  .00004136  00000-0  32020-3 0  1000
2 27371 038.0317 025.7025 0013476 196.7017 163.3301 15.01622434640068
0 PEGASUS R/B
1 27371U 02004B   13289.59587458  .00003847  00000-0  29833-3 0  1015
2 27371 038.0317 019.0905 0013532 205.4601 154.5494 15.01629356640235
0 PEGASUS R/B
1 27371U 02004B   13291.45781559  .00003724  00000-0  28897-3 0  1025
2 27371 038.0318 008.2017 0013730 219.0384 140.9386 15.01641404640517
0 PEGASUS R/B
1 27371U 02004B   13292.52177512  .00003468  00000-0  26960-3 0  1037
2 27371 038.0317 001.9790 0013852 226.6385 133.3222 15.01649150640672
0 PEGASUS R/B
1 27371U 02004B   13293.58572990  .00003803  00000-0  29481-3 0  1048
2 27371 038.0314 355.7565 0013975 233.5997 126.3475 15.01655637640838
0 PEGASUS R/B
1 27371U 02004B   13295.18165365  .00004165  00000-0  32196-3 0  1050
2 27371 038.0314 346.4223 0014005 244.9000 115.0308 15.01665360641073
